[{"OBJECT_NAME":"CONTECSAT-1","OBJECT_ID":"2024-043V","EPOCH":"2026-03-09T22:02:35.535840","MEAN_MOTION":15.34615346,"ECCENTRICITY":0.00100896,"INCLINATION":97.5476,"RA_OF_ASC_NODE":207.3735,"ARG_OF_PERICENTER":223.9905,"MEAN_ANOMALY":136.0535,"EPHEMERIS_TYPE":0,"CLASSIFICATION_TYPE":"U","NORAD_CAT_ID":59117,"ELEMENT_SET_NO":999,"REV_AT_EPOCH":11201,"BSTAR":0.0004369392,"MEAN_MOTION_DOT":0.00014607,"MEAN_MOTION_DDOT":0},{"OBJECT_NAME":"STARLINK-33828","OBJECT_ID":"2025-071A","EPOCH":"2026-03-09T12:29:09.352896","MEAN_MOTION":15.3022136,"ECCENTRICITY":0.00012504,"INCLINATION":53.1595,"RA_OF_ASC_NODE":142.876,"ARG_OF_PERICENTER":86.3008,"MEAN_ANOMALY":273.8135,"EPHEMERIS_TYPE":0,"CLASSIFICATION_TYPE":"U","NORAD_CAT_ID":63493,"ELEMENT_SET_NO":999,"REV_AT_EPOCH":5269,"BSTAR":0.00085536135,"MEAN_MOTION_DOT":0.00025076,"MEAN_MOTION_DDOT":0}]
